[
    {
        "Altitude(m)": 604221.1955340162,
        "Argument of Periapsis(deg)": 0.0,
        "Eccentricity": 0.0,
        "Inclination(deg)": 60.0,
        "Latitude(deg)": 14.117195709452535,
        "Longitude(deg)": -46.66586696510084,
        "Mean Anomaly(deg)": 16.363599999999998,
        "RAAN(deg)": 45.0,
        "Satellite Name": "Test1 199",
        "Satellite Number": 199,
        "Semi-Major Axis(m)": 6980739.136638005,
        "Time(s)": 0
    },
    {
        "Altitude(m)": 604235.3362191858,
        "Argument of Periapsis(deg)": 0.00010418945913296404,
        "Eccentricity": 0.0,
        "Inclination(deg)": 60.0,
        "Latitude(deg)": 14.651592897133138,
        "Longitude(deg)": -46.37742090660489,
        "Mean Anomaly(deg)": 16.983706145461827,
        "RAAN(deg)": 44.99957995086026,
        "Satellite Name": "Test1 199",
        "Satellite Number": 199,
        "Semi-Major Axis(m)": 6980739.136638005,
        "Time(s)": 10
    }
]